NORAD_CAT_ID,OBJECT_NAME,OBJECT_TYPE,EPOCH,MEAN_MOTION,ECCENTRICITY,INCLINATION,RA_OF_ASC_NODE,ARG_OF_PERICENTER,MEAN_ANOMALY,BSTAR,MEAN_MOTION_DOT,MEAN_MOTION_DDOT,TLE_LINE0,TLE_LINE1,TLE_LINE2,SEMIMAJOR_AXIS,PERIOD,APOGEE,PERIGEE,DECAYED
51992.0,STARLINK-3643,PAYLOAD,2023-03-29 09:36:00,15.0883669,0.0001376,53.2139,170.7754,106.1013,254.0131,-4.0933e-05,-9.39e-06,0.0,0 STARLINK-3643,1 51992U 22025AN  23088.40000156 -.00000939  00000-0 -40933-4 0  9990,2 51992  53.2139 170.7754 0001376 106.1013 254.0131 15.08836690 59973,6917.891,95.438,540.707,538.804,0.0
51992.0,STARLINK-3643,PAYLOAD,2023-03-29 12:46:46,15.08846692,0.0001386,53.2137,170.1798,102.7671,257.3476,-2.8077e-05,-7.35e-06,0.0,0 STARLINK-3643,1 51992U 22025AN  23088.53247921 -.00000735  00000-0 -28077-4 0  9996,2 51992  53.2137 170.1798 0001386 102.7671 257.3476 15.08846692 58448,6917.86,95.437,540.684,538.766,0.0
51992.0,STARLINK-3643,PAYLOAD,2023-03-30 11:02:10,15.08841274,0.000146,53.2145,166.0181,86.7609,273.355,0.00011977,1.619e-05,0.0,0 STARLINK-3643,1 51992U 22025AN  23089.45984516  .00001619  00000-0  11977-3 0  9996,2 51992  53.2145 166.0181 0001460  86.7609 273.3550 15.08841274 60133,6917.876,95.437,540.752,538.731,0.0
51992.0,STARLINK-3643,PAYLOAD,2023-03-30 12:37:33,15.08850188,0.0001426,53.2148,165.7212,87.7861,272.3294,0.00028738,4.29e-05,0.0,0 STARLINK-3643,1 51992U 22025AN  23089.52608213  .00004290  00000-0  28738-3 0  9992,2 51992  53.2148 165.7212 0001426  87.7861 272.3294 15.08850188 60149,6917.849,95.437,540.701,538.728,0.0
51992.0,STARLINK-3643,PAYLOAD,2023-04-01 04:22:12,15.08834799,0.0001798,53.2144,158.2883,56.0656,304.0507,3.0837e-05,2.03e-06,0.0,0 STARLINK-3643,1 51992U 22025AN  23091.18209124  .00000203  00000-0  30837-4 0  9999,2 51992  53.2144 158.2883 0001798  56.0656 304.0507 15.08834799 60396,6917.896,95.438,541.005,538.517,0.0
51992.0,STARLINK-3643,PAYLOAD,2023-04-01 10:43:45,15.08830996,0.0001627,53.2138,157.0961,85.4589,274.6589,-1.0366e-05,-4.53e-06,0.0,0 STARLINK-3643,1 51992U 22025AN  23091.44705364 -.00000453  00000-0 -10366-4 0  9999,2 51992  53.2138 157.0961 0001627  85.4589 274.6589 15.08830996 58883,6917.908,95.438,540.898,538.647,0.0
51992.0,STARLINK-3643,PAYLOAD,2023-04-01 21:51:27,15.08837521,0.000147,53.2144,155.0144,83.1561,276.9598,-4.9757e-05,-1.08e-05,0.0,0 STARLINK-3643,1 51992U 22025AN  23091.91073436 -.00001080  00000-0 -49757-4 0  9992,2 51992  53.2144 155.0144 0001470  83.1561 276.9598 15.08837521 58956,6917.888,95.438,540.77,538.736,0.0
51992.0,STARLINK-3643,PAYLOAD,2023-04-02 10:34:32,15.0884345,0.0001426,53.2139,152.6343,76.8373,283.2778,0.00015017,2.103e-05,0.0,0 STARLINK-3643,1 51992U 22025AN  23092.44064867  .00002103  00000-0  15017-3 0  9995,2 51992  53.2139 152.6343 0001426  76.8373 283.2778 15.08843450 60586,6917.87,95.437,540.721,538.748,0.0
51992.0,STARLINK-3643,PAYLOAD,2023-04-02 13:45:17,15.08848481,0.0001292,53.2136,152.0364,95.8184,264.2955,0.00016289,2.306e-05,0.0,0 STARLINK-3643,1 51992U 22025AN  23092.57312465  .00002306  00000-0  16289-3 0  9996,2 51992  53.2136 152.0364 0001292  95.8184 264.2955 15.08848481 59057,6917.854,95.437,540.613,538.826,0.0
51992.0,STARLINK-3643,PAYLOAD,2023-04-02 23:17:37,15.08835189,0.0001285,53.2138,150.2553,90.5054,269.6085,7.3926e-05,8.89e-06,0.0,0 STARLINK-3643,1 51992U 22025AN  23092.97057161  .00000889  00000-0  73926-4 0  9995,2 51992  53.2138 150.2553 0001285  90.5054 269.6085 15.08835189 60662,6917.895,95.438,540.649,538.871,0.0
51992.0,STARLINK-3643,PAYLOAD,2023-04-03 10:25:19,15.08828064,0.0001198,53.2135,148.1684,111.2316,248.8804,0.00013156,1.806e-05,0.0,0 STARLINK-3643,1 51992U 22025AN  23093.43425584  .00001806  00000-0  13156-3 0  9993,2 51992  53.2135 148.1684 0001198 111.2316 248.8804 15.08828064 60735,6917.917,95.438,540.611,538.953,0.0
51992.0,STARLINK-3643,PAYLOAD,2023-04-03 19:57:38,15.0883749,0.000149,53.2155,146.3908,113.3938,246.7211,5.4434e-05,5.78e-06,0.0,0 STARLINK-3643,1 51992U 22025AN  23093.83169313  .00000578  00000-0  54434-4 0  9992,2 51992  53.2155 146.3908 0001490 113.3938 246.7211 15.08837490 60792,6917.888,95.438,540.784,538.722,0.0
51992.0,STARLINK-3643,PAYLOAD,2023-04-04 10:16:05,15.08850334,0.0001302,53.2138,143.7127,99.2471,260.8668,0.00020598,2.993e-05,0.0,0 STARLINK-3643,1 51992U 22025AN  23094.42784505  .00002993  00000-0  20598-3 0  9990,2 51992  53.2138 143.7127 0001302  99.2471 260.8668 15.08850334 60888,6917.849,95.437,540.615,538.813,0.0
51992.0,STARLINK-3643,PAYLOAD,2023-04-05 02:09:57,15.0884278,0.0001448,53.2145,140.743,90.2596,269.8563,0.00014484,2.018e-05,0.0,0 STARLINK-3643,1 51992U 22025AN  23095.09024818  .00002018  00000-0  14484-3 0  9993,2 51992  53.2145 140.7430 0001448  90.2596 269.8563 15.08842780 60980,6917.872,95.437,540.739,538.735,0.0
51992.0,STARLINK-3643,PAYLOAD,2023-04-05 10:06:53,15.08832608,0.0001284,53.2134,139.2519,94.6449,265.469,2.786e-06,-2.44e-06,0.0,0 STARLINK-3643,1 51992U 22025AN  23095.42145330 -.00000244  00000-0  27860-5 0  9997,2 51992  53.2134 139.2519 0001284  94.6449 265.4690 15.08832608 61030,6917.903,95.438,540.656,538.88,0.0
51992.0,STARLINK-3643,PAYLOAD,2023-04-05 19:39:12,15.08836789,0.0001236,53.2143,137.4674,91.1339,268.9795,6.6559e-05,7.71e-06,0.0,0 STARLINK-3643,1 51992U 22025AN  23095.81889518  .00000771  00000-0  66559-4 0  9994,2 51992  53.2143 137.4674 0001236  91.1339 268.9795 15.08836789 59540,6917.89,95.438,540.61,538.9,0.0
51992.0,STARLINK-3643,PAYLOAD,2023-04-06 09:57:40,15.08843096,0.0001248,53.2143,134.791,89.3849,270.7286,4.3717e-05,4.08e-06,0.0,0 STARLINK-3643,1 51992U 22025AN  23096.41505069  .00000408  00000-0  43717-4 0  9995,2 51992  53.2143 134.7910 0001248  89.3849 270.7286 15.08843096 61189,6917.871,95.437,540.599,538.873,0.0
51992.0,STARLINK-3643,PAYLOAD,2023-04-06 22:40:45,15.08834651,0.0001223,53.2147,132.412,89.5584,270.5548,0.00012116,1.641e-05,0.0,0 STARLINK-3643,1 51992U 22025AN  23096.94497335  .00001641  00000-0  12116-3 0  9997,2 51992  53.2147 132.4120 0001223  89.5584 270.5548 15.08834651 61267,6917.897,95.438,540.608,538.916,0.0
51992.0,STARLINK-3643,PAYLOAD,2023-04-07 11:23:50,15.08841314,0.0001232,53.2148,130.0327,92.2568,267.8566,0.00014828,2.073e-05,0.0,0 STARLINK-3643,1 51992U 22025AN  23097.47489077  .00002073  00000-0  14828-3 0  9992,2 51992  53.2148 130.0327 0001232  92.2568 267.8566 15.08841314 59792,6917.876,95.437,540.594,538.889,0.0
51992.0,STARLINK-3643,PAYLOAD,2023-04-08 01:42:19,15.08838992,0.0001215,53.2155,127.3566,89.7001,270.413,9.5171e-05,1.227e-05,0.0,0 STARLINK-3643,1 51992U 22025AN  23098.07105377  .00001227  00000-0  95171-4 0  9998,2 51992  53.2155 127.3566 0001215  89.7001 270.4130 15.08838992 61437,6917.883,95.438,540.589,538.908,0.0
51992.0,STARLINK-3643,PAYLOAD,2023-04-08 08:03:51,15.08838698,0.0001111,53.2159,126.1668,94.4825,265.6294,8.5594e-05,1.075e-05,0.0,0 STARLINK-3643,1 51992U 22025AN  23098.33601441  .00001075  00000-0  85594-4 0  9999,2 51992  53.2159 126.1668 0001111  94.4825 265.6294 15.08838698 59924,6917.884,95.438,540.518,538.981,0.0
51992.0,STARLINK-3643,PAYLOAD,2023-04-09 01:33:06,15.08835909,0.0001274,53.2146,122.8957,85.1347,274.9791,4.4602e-05,4.22e-06,0.0,0 STARLINK-3643,1 51992U 22025AN  23099.06465922  .00000422  00000-0  44602-4 0  9992,2 51992  53.2146 122.8957 0001274  85.1347 274.9791 15.08835909 61582,6917.893,95.438,540.639,538.877,0.0
51992.0,STARLINK-3643,PAYLOAD,2023-04-09 07:54:39,15.08837193,0.0001342,53.215,121.7076,80.1978,279.9166,5.645e-05,6.11e-06,0.0,0 STARLINK-3643,1 51992U 22025AN  23099.32961881  .00000611  00000-0  56450-4 0  9990,2 51992  53.2150 121.7076 0001342  80.1978 279.9166 15.08837193 60079,6917.889,95.438,540.682,538.826,0.0
51992.0,STARLINK-3643,PAYLOAD,2023-04-09 19:02:20,15.08842011,0.0001337,53.2155,119.6247,83.8699,276.2445,6.7285e-05,7.83e-06,0.0,0 STARLINK-3643,1 51992U 22025AN  23099.79329596  .00000783  00000-0  67285-4 0  9990,2 51992  53.2155 119.6247 0001337  83.8699 276.2445 15.08842011 60147,6917.874,95.437,540.664,538.814,0.0
51992.0,STARLINK-3643,PAYLOAD,2023-04-10 06:10:01,15.08873243,0.0001968,53.2158,117.5438,76.2099,283.9112,-0.00043967,-7.285e-05,0.0,0 STARLINK-3643,1 51992U 22025AN  23100.25696424 -.00007285  00000-0 -43967-3 0  9997,2 51992  53.2158 117.5438 0001968  76.2099 283.9112 15.08873243 61765,6917.779,95.435,541.005,538.282,0.0
51992.0,STARLINK-3643,PAYLOAD,2023-04-10 07:45:25,15.08847125,0.0001342,53.216,117.2459,82.4169,277.6976,2.6528e-05,1.34e-06,0.0,0 STARLINK-3643,1 51992U 22025AN  23100.32321424  .00000134  00000-0  26528-4 0  9999,2 51992  53.2160 117.2459 0001342  82.4169 277.6976 15.08847125 60229,6917.859,95.437,540.652,538.795,0.0
51992.0,STARLINK-3643,PAYLOAD,2023-04-11 07:36:12,15.08846027,0.0001322,53.2157,112.784,92.0,268.1143,0.00012629,1.723e-05,0.0,0 STARLINK-3643,1 51992U 22025AN  23101.31681283  .00001723  00000-0  12629-3 0  9992,2 51992  53.2157 112.7840 0001322  92.0000 268.1143 15.08846027 60375,6917.862,95.437,540.642,538.812,0.0
51992.0,STARLINK-3643,PAYLOAD,2023-04-11 17:08:31,15.08840803,0.0001336,53.2154,110.9996,90.8608,269.2537,7.2478e-05,8.66e-06,0.0,0 STARLINK-3643,1 51992U 22025AN  23101.71425705  .00000866  00000-0  72478-4 0  9997,2 51992  53.2154 110.9996 0001336  90.8608 269.2537 15.08840803 60431,6917.878,95.438,540.667,538.819,0.0
51992.0,STARLINK-3643,PAYLOAD,2023-04-12 04:16:16,15.08753063,0.0001214,53.2169,108.9189,123.4885,236.6223,0.0012113,0.00018997,0.0,0 STARLINK-3643,1 51992U 22025AN  23102.17797037  .00018997  00000-0  12113-2 0  9990,2 51992  53.2169 108.9189 0001214 123.4885 236.6223 15.08753063 62054,6918.146,95.443,540.851,539.171,0.0
51992.0,STARLINK-3643,PAYLOAD,2023-04-12 07:27:00,15.08835897,0.000152,53.2175,108.3247,107.1719,252.944,7.1403e-06,-1.74e-06,0.0,0 STARLINK-3643,1 51992U 22025AN  23102.31042150 -.00000174  00000-0  71403-5 0  9994,2 51992  53.2175 108.3247 0001520 107.1719 252.9440 15.08835897 62075,6917.893,95.438,540.809,538.706,0.0
